[{"OBJECT_NAME":"STARLINK-6135","OBJECT_ID":"2023-065AN","EPOCH":"2026-03-09T11:35:05.970336","MEAN_MOTION":15.02534558,"ECCENTRICITY":0.00017857,"INCLINATION":43.0029,"RA_OF_ASC_NODE":224.4769,"ARG_OF_PERICENTER":279.0446,"MEAN_ANOMALY":81.0195,"EPHEMERIS_TYPE":0,"CLASSIFICATION_TYPE":"U","NORAD_CAT_ID":56539,"ELEMENT_SET_NO":999,"REV_AT_EPOCH":15644,"BSTAR":1.946475e-5,"MEAN_MOTION_DOT":5.9e-7,"MEAN_MOTION_DDOT":0},{"OBJECT_NAME":"DELTA 1 DEB [YO]","OBJECT_ID":"1962-025C","EPOCH":"2026-03-09T06:59:27.829248","MEAN_MOTION":14.61649282,"ECCENTRICITY":0.01914532,"INCLINATION":58.2466,"RA_OF_ASC_NODE":31.0391,"ARG_OF_PERICENTER":170.2979,"MEAN_ANOMALY":190.1836,"EPHEMERIS_TYPE":0,"CLASSIFICATION_TYPE":"U","NORAD_CAT_ID":312,"ELEMENT_SET_NO":999,"REV_AT_EPOCH":34431,"BSTAR":0.00017996806,"MEAN_MOTION_DOT":9.52e-6,"MEAN_MOTION_DDOT":0}]
